[
  {
    "OBJECT_NAME": "STARLINK-3320",
    "OBJECT_ID": "22001AN",
    "EPOCH": "2025-11-11T07:29:50.755200",
    "MEAN_MOTION": 15.08841122,
    "ECCENTRICITY": 0.0001352,
    "INCLINATION": 53.217,
    "RA_OF_ASC_NODE": 350.5363,
    "ARG_OF_PERICENTER": 82.9016,
    "MEAN_ANOMALY": 277.213,
    "EPHEMERIS_TYPE": 0,
    "CLASSIFICATION_TYPE": "U",
    "NORAD_CAT_ID": 50839,
    "ELEMENT_SET_NO": 999,
    "REV_AT_EPOCH": 21238,
    "BSTAR": 6.6589e-05,
    "MEAN_MOTION_DOT": 7.72e-06,
    "MEAN_MOTION_DDOT": 0.0,
    "TLE_LINE1": "1 50839U 22001AN  25315.31239300  .00000772  00000+0  66589-4 0  9990",
    "TLE_LINE2": "2 50839  53.2170 350.5363 0001352  82.9016 277.2130 15.08841122212387",
    "COMMENT": "Grouped by shell and plane from TLE"
  },
  {
    "OBJECT_NAME": "STARLINK-3295",
    "OBJECT_ID": "22001AP",
    "EPOCH": "2025-11-11T07:24:33.255072",
    "MEAN_MOTION": 15.08839597,
    "ECCENTRICITY": 0.0001433,
    "INCLINATION": 53.2164,
    "RA_OF_ASC_NODE": 350.5516,
    "ARG_OF_PERICENTER": 94.5655,
    "MEAN_ANOMALY": 265.55,
    "EPHEMERIS_TYPE": 0,
    "CLASSIFICATION_TYPE": "U",
    "NORAD_CAT_ID": 50840,
    "ELEMENT_SET_NO": 999,
    "REV_AT_EPOCH": 21238,
    "BSTAR": 0.0002633,
    "MEAN_MOTION_DOT": 3.905e-05,
    "MEAN_MOTION_DDOT": 0.0,
    "TLE_LINE1": "1 50840U 22001AP  25315.30871823  .00003905  00000+0  26330-3 0  9993",
    "TLE_LINE2": "2 50840  53.2164 350.5516 0001433  94.5655 265.5500 15.08839597212384",
    "COMMENT": "Grouped by shell and plane from TLE"
  },
  {
    "OBJECT_NAME": "STARLINK-3300",
    "OBJECT_ID": "22001AQ",
    "EPOCH": "2025-11-11T06:05:02.114016",
    "MEAN_MOTION": 15.08864969,
    "ECCENTRICITY": 0.0001398,
    "INCLINATION": 53.217,
    "RA_OF_ASC_NODE": 350.7999,
    "ARG_OF_PERICENTER": 92.4993,
    "MEAN_ANOMALY": 267.616,
    "EPHEMERIS_TYPE": 0,
    "CLASSIFICATION_TYPE": "U",
    "NORAD_CAT_ID": 50841,
    "ELEMENT_SET_NO": 999,
    "REV_AT_EPOCH": 21238,
    "BSTAR": 0.0002447,
    "MEAN_MOTION_DOT": 3.611e-05,
    "MEAN_MOTION_DDOT": 0.0,
    "TLE_LINE1": "1 50841U 22001AQ  25315.25349669  .00003611  00000+0  24470-3 0  9993",
    "TLE_LINE2": "2 50841  53.2170 350.7999 0001398  92.4993 267.6160 15.08864969212387",
    "COMMENT": "Grouped by shell and plane from TLE"
  },
  {
    "OBJECT_NAME": "STARLINK-3302",
    "OBJECT_ID": "22001AR",
    "EPOCH": "2025-11-11T07:19:15.119904",
    "MEAN_MOTION": 15.0883993,
    "ECCENTRICITY": 0.000144,
    "INCLINATION": 53.2186,
    "RA_OF_ASC_NODE": 350.5696,
    "ARG_OF_PERICENTER": 83.1014,
    "MEAN_ANOMALY": 277.0142,
    "EPHEMERIS_TYPE": 0,
    "CLASSIFICATION_TYPE": "U",
    "NORAD_CAT_ID": 50842,
    "ELEMENT_SET_NO": 999,
    "REV_AT_EPOCH": 21238,
    "BSTAR": 7.692400000000001e-05,
    "MEAN_MOTION_DOT": 9.37e-06,
    "MEAN_MOTION_DDOT": 0.0,
    "TLE_LINE1": "1 50842U 22001AR  25315.30503611  .00000937  00000+0  76924-4 0  9999",
    "TLE_LINE2": "2 50842  53.2186 350.5696 0001440  83.1014 277.0142 15.08839930212381",
    "COMMENT": "Grouped by shell and plane from TLE"
  },
  {
    "OBJECT_NAME": "STARLINK-3325",
    "OBJECT_ID": "22001AS",
    "EPOCH": "2025-11-11T06:15:39.851424",
    "MEAN_MOTION": 15.08837223,
    "ECCENTRICITY": 0.0001145,
    "INCLINATION": 53.2181,
    "RA_OF_ASC_NODE": 350.7678,
    "ARG_OF_PERICENTER": 93.8019,
    "MEAN_ANOMALY": 266.3104,
    "EPHEMERIS_TYPE": 0,
    "CLASSIFICATION_TYPE": "U",
    "NORAD_CAT_ID": 50843,
    "ELEMENT_SET_NO": 999,
    "REV_AT_EPOCH": 21238,
    "BSTAR": 5.0744e-05,
    "MEAN_MOTION_DOT": 5.2e-06,
    "MEAN_MOTION_DDOT": 0.0,
    "TLE_LINE1": "1 50843U 22001AS  25315.26087791  .00000520  00000+0  50744-4 0  9991",
    "TLE_LINE2": "2 50843  53.2181 350.7678 0001145  93.8019 266.3104 15.08837223212386",
    "COMMENT": "Grouped by shell and plane from TLE"
  },
  {
    "OBJECT_NAME": "STARLINK-3326",
    "OBJECT_ID": "22001AT",
    "EPOCH": "2025-11-11T07:03:21.543840",
    "MEAN_MOTION": 15.08839203,
    "ECCENTRICITY": 0.000155,
    "INCLINATION": 53.2201,
    "RA_OF_ASC_NODE": 350.6187,
    "ARG_OF_PERICENTER": 82.696,
    "MEAN_ANOMALY": 277.4208,
    "EPHEMERIS_TYPE": 0,
    "CLASSIFICATION_TYPE": "U",
    "NORAD_CAT_ID": 50844,
    "ELEMENT_SET_NO": 999,
    "REV_AT_EPOCH": 21239,
    "BSTAR": 0.00010313999999999999,
    "MEAN_MOTION_DOT": 1.354e-05,
    "MEAN_MOTION_DDOT": 0.0,
    "TLE_LINE1": "1 50844U 22001AT  25315.29399935  .00001354  00000+0  10314-3 0  9995",
    "TLE_LINE2": "2 50844  53.2201 350.6187 0001550  82.6960 277.4208 15.08839203212394",
    "COMMENT": "Grouped by shell and plane from TLE"
  },
  {
    "OBJECT_NAME": "STARLINK-3230",
    "OBJECT_ID": "22001AU",
    "EPOCH": "2025-11-11T06:31:33.730752",
    "MEAN_MOTION": 15.08841009,
    "ECCENTRICITY": 0.0001101,
    "INCLINATION": 53.2186,
    "RA_OF_ASC_NODE": 350.7171,
    "ARG_OF_PERICENTER": 91.3607,
    "MEAN_ANOMALY": 268.7511,
    "EPHEMERIS_TYPE": 0,
    "CLASSIFICATION_TYPE": "U",
    "NORAD_CAT_ID": 50845,
    "ELEMENT_SET_NO": 999,
    "REV_AT_EPOCH": 21239,
    "BSTAR": 0.0,
    "MEAN_MOTION_DOT": -1.394e-05,
    "MEAN_MOTION_DDOT": 0.0,
    "TLE_LINE1": "1 50845U 22001AU  25315.27191818 -.00001394  00000+0 -69500-4 0  9992",
    "TLE_LINE2": "2 50845  53.2186 350.7171 0001101  91.3607 268.7511 15.08841009212395",
    "COMMENT": "Grouped by shell and plane from TLE"
  },
  {
    "OBJECT_NAME": "STARLINK-3308",
    "OBJECT_ID": "22001AV",
    "EPOCH": "2025-11-11T07:13:57.393408",
    "MEAN_MOTION": 15.08874558,
    "ECCENTRICITY": 0.0001556,
    "INCLINATION": 53.2174,
    "RA_OF_ASC_NODE": 350.703,
    "ARG_OF_PERICENTER": 78.3092,
    "MEAN_ANOMALY": 281.8075,
    "EPHEMERIS_TYPE": 0,
    "CLASSIFICATION_TYPE": "U",
    "NORAD_CAT_ID": 50846,
    "ELEMENT_SET_NO": 999,
    "REV_AT_EPOCH": 21239,
    "BSTAR": 0.0,
    "MEAN_MOTION_DOT": -6.736e-05,
    "MEAN_MOTION_DDOT": 0.0,
    "TLE_LINE1": "1 50846U 22001AV  25315.30135872 -.00006736  00000+0 -40515-3 0  9994",
    "TLE_LINE2": "2 50846  53.2174 350.7030 0001556  78.3092 281.8075 15.08874558212390",
    "COMMENT": "Grouped by shell and plane from TLE"
  },
  {
    "OBJECT_NAME": "STARLINK-3315",
    "OBJECT_ID": "22001AX",
    "EPOCH": "2025-11-11T06:52:45.777216",
    "MEAN_MOTION": 15.08838105,
    "ECCENTRICITY": 0.0001513,
    "INCLINATION": 53.2196,
    "RA_OF_ASC_NODE": 350.6529,
    "ARG_OF_PERICENTER": 89.084,
    "MEAN_ANOMALY": 271.0325,
    "EPHEMERIS_TYPE": 0,
    "CLASSIFICATION_TYPE": "U",
    "NORAD_CAT_ID": 50848,
    "ELEMENT_SET_NO": 999,
    "REV_AT_EPOCH": 21239,
    "BSTAR": 7.547700000000001e-05,
    "MEAN_MOTION_DOT": 9.13e-06,
    "MEAN_MOTION_DDOT": 0.0,
    "TLE_LINE1": "1 50848U 22001AX  25315.28664094  .00000913  00000+0  75477-4 0  9991",
    "TLE_LINE2": "2 50848  53.2196 350.6529 0001513  89.0840 271.0325 15.08838105212398",
    "COMMENT": "Grouped by shell and plane from TLE"
  },
  {
    "OBJECT_NAME": "STARLINK-3311",
    "OBJECT_ID": "22001AY",
    "EPOCH": "2025-11-11T07:08:39.050016",
    "MEAN_MOTION": 15.08844761,
    "ECCENTRICITY": 0.0001315,
    "INCLINATION": 53.2184,
    "RA_OF_ASC_NODE": 350.6049,
    "ARG_OF_PERICENTER": 96.8547,
    "MEAN_ANOMALY": 263.2595,
    "EPHEMERIS_TYPE": 0,
    "CLASSIFICATION_TYPE": "U",
    "NORAD_CAT_ID": 50849,
    "ELEMENT_SET_NO": 999,
    "REV_AT_EPOCH": 21239,
    "BSTAR": 0.00011346,
    "MEAN_MOTION_DOT": 1.518e-05,
    "MEAN_MOTION_DDOT": 0.0,
    "TLE_LINE1": "1 50849U 22001AY  25315.29767419  .00001518  00000+0  11346-3 0  9994",
    "TLE_LINE2": "2 50849  53.2184 350.6049 0001315  96.8547 263.2595 15.08844761212390",
    "COMMENT": "Grouped by shell and plane from TLE"
  },
  {
    "OBJECT_NAME": "STARLINK-3314",
    "OBJECT_ID": "22001BA",
    "EPOCH": "2025-11-11T06:36:51.008832",
    "MEAN_MOTION": 15.08839774,
    "ECCENTRICITY": 0.0001081,
    "INCLINATION": 53.2188,
    "RA_OF_ASC_NODE": 350.624,
    "ARG_OF_PERICENTER": 84.5973,
    "MEAN_ANOMALY": 275.5142,
    "EPHEMERIS_TYPE": 0,
    "CLASSIFICATION_TYPE": "U",
    "NORAD_CAT_ID": 50851,
    "ELEMENT_SET_NO": 999,
    "REV_AT_EPOCH": 21239,
    "BSTAR": 6.6198e-05,
    "MEAN_MOTION_DOT": 7.66e-06,
    "MEAN_MOTION_DDOT": 0.0,
    "TLE_LINE1": "1 50851U 22001BA  25315.27559038  .00000766  00000+0  66198-4 0  9991",
    "TLE_LINE2": "2 50851  53.2188 350.6240 0001081  84.5973 275.5142 15.08839774212399",
    "COMMENT": "Grouped by shell and plane from TLE"
  },
  {
    "OBJECT_NAME": "STARLINK-3793",
    "OBJECT_ID": "22045BB",
    "EPOCH": "2025-11-11T06:47:28.027392",
    "MEAN_MOTION": 15.08840869,
    "ECCENTRICITY": 0.0001525,
    "INCLINATION": 53.2192,
    "RA_OF_ASC_NODE": 350.6978,
    "ARG_OF_PERICENTER": 94.322,
    "MEAN_ANOMALY": 265.7946,
    "EPHEMERIS_TYPE": 0,
    "CLASSIFICATION_TYPE": "U",
    "NORAD_CAT_ID": 52380,
    "ELEMENT_SET_NO": 999,
    "REV_AT_EPOCH": 19818,
    "BSTAR": 0.00011204,
    "MEAN_MOTION_DOT": 1.496e-05,
    "MEAN_MOTION_DDOT": 0.0,
    "TLE_LINE1": "1 52380U 22045BB  25315.28296328  .00001496  00000+0  11204-3 0  9997",
    "TLE_LINE2": "2 52380  53.2192 350.6978 0001525  94.3220 265.7946 15.08840869198188",
    "COMMENT": "Grouped by shell and plane from TLE"
  },
  {
    "OBJECT_NAME": "STARLINK-3811",
    "OBJECT_ID": "22045BE",
    "EPOCH": "2025-11-11T05:59:46.277088",
    "MEAN_MOTION": 15.08846614,
    "ECCENTRICITY": 0.0001593,
    "INCLINATION": 53.2165,
    "RA_OF_ASC_NODE": 350.8449,
    "ARG_OF_PERICENTER": 85.1637,
    "MEAN_ANOMALY": 274.9537,
    "EPHEMERIS_TYPE": 0,
    "CLASSIFICATION_TYPE": "U",
    "NORAD_CAT_ID": 52383,
    "ELEMENT_SET_NO": 999,
    "REV_AT_EPOCH": 19818,
    "BSTAR": 0.00045993,
    "MEAN_MOTION_DOT": 7.041e-05,
    "MEAN_MOTION_DDOT": 0.0,
    "TLE_LINE1": "1 52383U 22045BE  25315.24984117  .00007041  00000+0  45993-3 0  9990",
    "TLE_LINE2": "2 52383  53.2165 350.8449 0001593  85.1637 274.9537 15.08846614198183",
    "COMMENT": "Grouped by shell and plane from TLE"
  }
]